{"type": "FeatureCollection", "features": [ {"type": "Feature", "properties": {"norad_id": 66530, "name": "STARLINK-35961", "group": "last-30-days", "lat": -2.833555357585655, "lon": -72.18029494881034, "alt_km": 344.7277642361878, "timestamp": "2025-12-04T03:47:53.336335+00:00", "meta": {"OBJECT_NAME": "STARLINK-35961", "OBJECT_ID": "2025-265Q", "EPOCH": "2025-12-03T12:00:02.998944", "MEAN_MOTION": 15.75031559, "ECCENTRICITY": 0.0001366, "INCLINATION": 42.9998, "RA_OF_ASC_NODE": 108.7692, "ARG_OF_PERICENTER": 270.453, "MEAN_ANOMALY": 136.8921, "EPHEMERIS_TYPE": 0, "CLASSIFICATION_TYPE": "U", "NORAD_CAT_ID": 66530, "ELEMENT_SET_NO": 999, "REV_AT_EPOCH": 351, "BSTAR": -6.8097e-05, "MEAN_MOTION_DOT": -0.0001092, "MEAN_MOTION_DDOT": 0}, "tle": {"line1": "1 66530U 25265Q   25337.50003471 -.00010920  00000+0 -68097-4 0  9997", "line2": "2 66530  42.9998 108.7692 0001366 270.4530 136.8921 15.75031559  3513"}}, "geometry": {"type": "Point", "coordinates": [-72.18029494881034, -2.833555357585655]}}, {"type": "Feature", "properties": {"norad_id": 66531, "name": "STARLINK-35960", "group": "last-30-days", "lat": -4.1763939070493565, "lon": -70.73433221585987, "alt_km": 344.810812886506, "timestamp": "2025-12-04T03:47:53.336345+00:00", "meta": {"OBJECT_NAME": "STARLINK-35960", "OBJECT_ID": "2025-265R", "EPOCH": "2025-12-03T20:00:01.999008", "MEAN_MOTION": 15.75181183, "ECCENTRICITY": 0.0001634, "INCLINATION": 42.9998, "RA_OF_ASC_NODE": 106.7429, "ARG_OF_PERICENTER": 264.6611, "MEAN_ANOMALY": 236.876, "EPHEMERIS_TYPE": 0, "CLASSIFICATION_TYPE": "U", "NORAD_CAT_ID": 66531, "ELEMENT_SET_NO": 999, "REV_AT_EPOCH": 356, "BSTAR": -0.0020661, "MEAN_MOTION_DOT": -0.00308461, "MEAN_MOTION_DDOT": 0}, "tle": {"line1": "1 66531U 25265R   25337.83335647 -.00308461  00000+0 -20661-2 0  9990", "line2": "2 66531  42.9998 106.7429 0001634 264.6611 236.8760 15.75181183  3569"}}, "geometry": {"type": "Point", "coordinates": [-70.73433221585987, -4.1763939070493565]}}, {"type": "Feature", "properties": {"norad_id": 66532, "name": "STARLINK-35914", "group": "last-30-days", "lat": -5.4123567934812185, "lon": -69.39860235446011, "alt_km": 345.0148334953774, "timestamp": "2025-12-04T03:47:53.336357+00:00", "meta": {"OBJECT_NAME": "STARLINK-35914", "OBJECT_ID": "2025-265S", "EPOCH": "2025-12-03T12:00:02.998944", "MEAN_MOTION": 15.75066529, "ECCENTRICITY": 0.0001758, "INCLINATION": 42.9995, "RA_OF_ASC_NODE": 108.7598, "ARG_OF_PERICENTER": 264.6437, "MEAN_ANOMALY": 146.5303, "EPHEMERIS_TYPE": 0, "CLASSIFICATION_TYPE": "U", "NORAD_CAT_ID": 66532, "ELEMENT_SET_NO": 999, "REV_AT_EPOCH": 351, "BSTAR": -0.00053863, "MEAN_MOTION_DOT": -0.00082513, "MEAN_MOTION_DDOT": 0}, "tle": {"line1": "1 66532U 25265S   25337.50003471 -.00082513  00000+0 -53863-3 0  9990", "line2": "2 66532  42.9995 108.7598 0001758 264.6437 146.5303 15.75066529  3510"}}, "geometry": {"type": "Point", "coordinates": [-69.39860235446011, -5.4123567934812185]}}, {"type": "Feature", "properties": {"norad_id": 66533, "name": "STARLINK-35707", "group": "last-30-days", "lat": -6.738862751041205, "lon": -67.95410569673652, "alt_km": 345.24925478989553, "timestamp": "2025-12-04T03:47:53.336368+00:00", "meta": {"OBJECT_NAME": "STARLINK-35707", "OBJECT_ID": "2025-265T", "EPOCH": "2025-12-03T12:00:02.998944", "MEAN_MOTION": 15.75045937, "ECCENTRICITY": 0.0001684, "INCLINATION": 42.9995, "RA_OF_ASC_NODE": 108.7551, "ARG_OF_PERICENTER": 277.482, "MEAN_ANOMALY": 135.6124, "EPHEMERIS_TYPE": 0, "CLASSIFICATION_TYPE": "U", "NORAD_CAT_ID": 66533, "ELEMENT_SET_NO": 999, "REV_AT_EPOCH": 351, "BSTAR": -0.00017731, "MEAN_MOTION_DOT": -0.00027633, "MEAN_MOTION_DDOT": 0}, "tle": {"line1": "1 66533U 25265T   25337.50003471 -.00027633  00000+0 -17731-3 0  9997", "line2": "2 66533  42.9995 108.7551 0001684 277.4820 135.6124 15.75045937  3516"}}, "geometry": {"type": "Point", "coordinates": [-67.95410569673652, -6.738862751041205]}}, {"type": "Feature", "properties": {"norad_id": 66534, "name": "STARLINK-35976", "group": "last-30-days", "lat": -8.007792286150023, "lon": -66.56023128359288, "alt_km": 345.0455334705184, "timestamp": "2025-12-04T03:47:53.336380+00:00", "meta": {"OBJECT_NAME": "STARLINK-35976", "OBJECT_ID": "2025-265U", "EPOCH": "2025-12-03T12:00:02.998944", "MEAN_MOTION": 15.75073381, "ECCENTRICITY": 0.0001668, "INCLINATION": 42.9997, "RA_OF_ASC_NODE": 108.7507, "ARG_OF_PERICENTER": 252.9538, "MEAN_ANOMALY": 162.0557, "EPHEMERIS_TYPE": 0, "CLASSIFICATION_TYPE": "U", "NORAD_CAT_ID": 66534, "ELEMENT_SET_NO": 999, "REV_AT_EPOCH": 351, "BSTAR": -0.00060276, "MEAN_MOTION_DOT": -0.00092202, "MEAN_MOTION_DDOT": 0}, "tle": {"line1": "1 66534U 25265U   25337.50003471 -.00092202  00000+0 -60276-3 0  9994", "line2": "2 66534  42.9997 108.7507 0001668 252.9538 162.0557 15.75073381  3514"}}, "geometry": {"type": "Point", "coordinates": [-66.56023128359288, -8.007792286150023]}}, {"type": "Feature", "properties": {"norad_id": 66535, "name": "STARLINK-35514", "group": "last-30-days", "lat": -9.315269354607166, "lon": -65.11033134773187, "alt_km": 345.3736969695465, "timestamp": "2025-12-04T03:47:53.336390+00:00", "meta": {"OBJECT_NAME": "STARLINK-35514", "OBJECT_ID": "2025-265V", "EPOCH": "2025-12-03T12:00:02.998944", "MEAN_MOTION": 15.75041657, "ECCENTRICITY": 0.0001472, "INCLINATION": 42.9998, "RA_OF_ASC_NODE": 108.7453, "ARG_OF_PERICENTER": 270.983, "MEAN_ANOMALY": 145.9454, "EPHEMERIS_TYPE": 0, "CLASSIFICATION_TYPE": "U", "NORAD_CAT_ID": 66535, "ELEMENT_SET_NO": 999, "REV_AT_EPOCH": 351, "BSTAR": -0.00018532, "MEAN_MOTION_DOT": -0.0002885, "MEAN_MOTION_DDOT": 0}, "tle": {"line1": "1 66535U 25265V   25337.50003471 -.00028850  00000+0 -18532-3 0  9991", "line2": "2 66535  42.9998 108.7453 0001472 270.9830 145.9454 15.75041657  3511"}}, "geometry": {"type": "Point", "coordinates": [-65.11033134773187, -9.315269354607166]}}, {"type": "Feature", "properties": {"norad_id": 66536, "name": "STARLINK-35640", "group": "last-30-days", "lat": -10.613460282382338, "lon": -63.65207504776315, "alt_km": 345.4977727091664, "timestamp": "2025-12-04T03:47:53.336400+00:00", "meta": {"OBJECT_NAME": "STARLINK-35640", "OBJECT_ID": "2025-265W", "EPOCH": "2025-12-03T12:00:02.998944", "MEAN_MOTION": 15.75030338, "ECCENTRICITY": 0.0001513, "INCLINATION": 42.9998, "RA_OF_ASC_NODE": 108.7411, "ARG_OF_PERICENTER": 277.0391, "MEAN_ANOMALY": 141.8063, "EPHEMERIS_TYPE": 0, "CLASSIFICATION_TYPE": "U", "NORAD_CAT_ID": 66536, "ELEMENT_SET_NO": 999, "REV_AT_EPOCH": 349, "BSTAR": 2.3349e-05, "MEAN_MOTION_DOT": 3.109e-05, "MEAN_MOTION_DDOT": 0}, "tle": {"line1": "1 66536U 25265W   25337.50003471  .00003109  00000+0  23349-4 0  9993", "line2": "2 66536  42.9998 108.7411 0001513 277.0391 141.8063 15.75030338  3494"}}, "geometry": {"type": "Point", "coordinates": [-63.65207504776315, -10.613460282382338]}}, {"type": "Feature", "properties": {"norad_id": 66537, "name": "STARLINK-35582", "group": "last-30-days", "lat": -11.879701980079197, "lon": -62.21116779466536, "alt_km": 345.5918074861347, "timestamp": "2025-12-04T03:47:53.336412+00:00", "meta": {"OBJECT_NAME": "STARLINK-35582", "OBJECT_ID": "2025-265X", "EPOCH": "2025-12-03T12:00:02.998944", "MEAN_MOTION": 15.75030441, "ECCENTRICITY": 0.0001476, "INCLINATION": 43, "RA_OF_ASC_NODE": 108.736, "ARG_OF_PERICENTER": 273.6862, "MEAN_ANOMALY": 147.0807, "EPHEMERIS_TYPE": 0, "CLASSIFICATION_TYPE": "U", "NORAD_CAT_ID": 66537, "ELEMENT_SET_NO": 999, "REV_AT_EPOCH": 351, "BSTAR": -6.1849e-05, "MEAN_MOTION_DOT": -9.963e-05, "MEAN_MOTION_DDOT": 0}, "tle": {"line1": "1 66537U 25265X   25337.50003471 -.00009963  00000+0 -61849-4 0  9997", "line2": "2 66537  43.0000 108.7360 0001476 273.6862 147.0807 15.75030441  3519"}}, "geometry": {"type": "Point", "coordinates": [-62.21116779466536, -11.879701980079197]}}, {"type": "Feature", "properties": {"norad_id": 66538, "name": "STARLINK-35577", "group": "last-30-days", "lat": -13.144651614289012, "lon": -60.74956304432735, "alt_km": 345.63248692842717, "timestamp": "2025-12-04T03:47:53.336422+00:00", "meta": {"OBJECT_NAME": "STARLINK-35577", "OBJECT_ID": "2025-265Y", "EPOCH": "2025-12-03T12:00:02.998944", "MEAN_MOTION": 15.75047233, "ECCENTRICITY": 0.0001476, "INCLINATION": 42.9999, "RA_OF_ASC_NODE": 108.7309, "ARG_OF_PERICENTER": 267.5102, "MEAN_ANOMALY": 155.1679, "EPHEMERIS_TYPE": 0, "CLASSIFICATION_TYPE": "U", "NORAD_CAT_ID": 66538, "ELEMENT_SET_NO": 999, "REV_AT_EPOCH": 351, "BSTAR": -0.0002298, "MEAN_MOTION_DOT": -0.0003564, "MEAN_MOTION_DDOT": 0}, "tle": {"line1": "1 66538U 25265Y   25337.50003471 -.00035640  00000+0 -22980-3 0  9991", "line2": "2 66538  42.9999 108.7309 0001476 267.5102 155.1679 15.75047233  3511"}}, "geometry": {"type": "Point", "coordinates": [-60.74956304432735, -13.144651614289012]}}, {"type": "Feature", "properties": {"norad_id": 66539, "name": "STARLINK-35697", "group": "last-30-days", "lat": -14.387526659752412, "lon": -59.28911590273126, "alt_km": 345.7798020138662, "timestamp": "2025-12-04T03:47:53.336431+00:00", "meta": {"OBJECT_NAME": "STARLINK-35697", "OBJECT_ID": "2025-265Z", "EPOCH": "2025-12-03T12:00:02.998944", "MEAN_MOTION": 15.75069469, "ECCENTRICITY": 0.000154, "INCLINATION": 43, "RA_OF_ASC_NODE": 108.7258, "ARG_OF_PERICENTER": 265.0757, "MEAN_ANOMALY": 159.5147, "EPHEMERIS_TYPE": 0, "CLASSIFICATION_TYPE": "U", "NORAD_CAT_ID": 66539, "ELEMENT_SET_NO": 999, "REV_AT_EPOCH": 351, "BSTAR": -0.00053939, "MEAN_MOTION_DOT": -0.00082635, "MEAN_MOTION_DDOT": 0}, "tle": {"line1": "1 66539U 25265Z   25337.50003471 -.00082635  00000+0 -53939-3 0  9996", "line2": "2 66539  43.0000 108.7258 0001540 265.0757 159.5147 15.75069469  3514"}}, "geometry": {"type": "Point", "coordinates": [-59.28911590273126, -14.387526659752412]}}]}